ONEWEB-0229             
1 48779U 21045N   24216.52327140 -.00000036  00000+0 -13025-3 0  9990
2 48779  87.9021  35.0423 0001764  84.6450 275.4882 13.15546505154658
ONEWEB-0228             
1 48780U 21045P   24216.55497355  .00000090  00000+0  20590-3 0  9994
2 48780  87.9018  35.0179 0001689  86.8042 273.3281 13.15070745154570
ONEWEB-0232             
1 48781U 21045Q   24216.53121431 -.00000018  00000+0 -80643-4 0  9990
2 48781  87.9014  35.0344 0001705  86.4083 273.7242 13.15548783154899
ONEWEB-0231             
1 48782U 21045R   24216.58507674  .00000078  00000+0  17357-3 0  9998
2 48782  87.9031  35.0607 0001568  82.6845 277.4463 13.15550189154598
ONEWEB-0234             
1 48783U 21045S   24216.52882756 -.00000024  00000+0 -98892-4 0  9997
2 48783  87.9022  35.0273 0002414 122.6988 237.4375 13.15549331154722
ONEWEB-0238             
1 48784U 21045T   24216.55894242  .00000203  00000+0  50537-3 0  9994
2 48784  87.9021  35.0388 0001848  94.4782 265.6560 13.15550227154621
ONEWEB-0240             
1 48785U 21045U   24216.56844371  .00000216  00000+0  54073-3 0  9997
2 48785  87.9022  35.0043 0001365  91.3872 268.7414 13.15549383154657
ONEWEB-0246             
1 48786U 21045V   24216.56290754  .00000200  00000+0  49611-3 0  9993
2 48786  87.9023  35.0106 0001741  83.6627 276.4702 13.15545268154529
